{
  "type": "FeatureCollection",
  "features": [
    {
      "type": "Feature",
      "properties": {
        "norad_id": 37238,
        "name": "INTELSAT 17 (IS-17)",
        "group": "intelsat",
        "lat": 0.007238496791403303,
        "lon": -142.17581438828884,
        "alt_km": 35782.84656516878,
        "timestamp": "2025-12-22T04:03:38.829606+00:00",
        "meta_object_name": "INTELSAT 17 (IS-17)",
        "meta_object_id": "2010-065B",
        "meta_epoch": "2025-12-21T10:05:17.244672",
        "meta_mean_motion": 1.0027158,
        "meta_eccentricity": 0.00028326,
        "meta_inclination": 0.0322,
        "meta_ra_of_asc_node": 71.525,
        "meta_arg_of_pericenter": 220.7239,
        "meta_mean_anomaly": 15.2864,
        "meta_ephemeris_type": 0,
        "meta_classification_type": "U",
        "meta_norad_cat_id": 37238,
        "meta_element_set_no": 999,
        "meta_rev_at_epoch": 5146,
        "meta_bstar": 0,
        "meta_mean_motion_dot": 0,
        "meta_mean_motion_ddot": 0,
        "tle_line1": "1 37238U 10065B   25355.42033848  .00000000  00000+0  00000+0 0  9995",
        "tle_line2": "2 37238   0.0322  71.5250 0002832 220.7239  15.2864  1.00271580 51468"
      },
      "geometry": {
        "type": "Point",
        "coordinates": [
          -142.17581438828884,
          0.007238496791403303
        ]
      }
    },
    {
      "type": "Feature",
      "properties": {
        "norad_id": 37392,
        "name": "INTELSAT 28 (IS-28)",
        "group": "intelsat",
        "lat": 0.8005909651463639,
        "lon": 120.14952148674313,
        "alt_km": 35800.79487412653,
        "timestamp": "2025-12-22T04:03:38.829617+00:00",
        "meta_object_name": "INTELSAT 28 (IS-28)",
        "meta_object_id": "2011-016A",
        "meta_epoch": "2025-12-21T18:10:57.539424",
        "meta_mean_motion": 1.00269452,
        "meta_eccentricity": 0.0003703,
        "meta_inclination": 1.3465,
        "meta_ra_of_asc_node": 84.9593,
        "meta_arg_of_pericenter": 189.4113,
        "meta_mean_anomaly": 57.237,
        "meta_ephemeris_type": 0,
        "meta_classification_type": "U",
        "meta_norad_cat_id": 37392,
        "meta_element_set_no": 999,
        "meta_rev_at_epoch": 5150,
        "meta_bstar": 0,
        "meta_mean_motion_dot": -2.04e-06,
        "meta_mean_motion_ddot": 0,
        "tle_line1": "1 37392U 11016A   25355.75761041 -.00000204  00000+0  00000+0 0  9999",
        "tle_line2": "2 37392   1.3465  84.9593 0003703 189.4113  57.2370  1.00269452 51507"
      },
      "geometry": {
        "type": "Point",
        "coordinates": [
          120.14952148674313,
          0.8005909651463639
        ]
      }
    },
    {
      "type": "Feature",
      "properties": {
        "norad_id": 37834,
        "name": "INTELSAT 18 (IS-18)",
        "group": "intelsat",
        "lat": 0.008312653133464768,
        "lon": -28.104096568709743,
        "alt_km": 35781.13346837491,
        "timestamp": "2025-12-22T04:03:38.829629+00:00",
        "meta_object_name": "INTELSAT 18 (IS-18)",
        "meta_object_id": "2011-056A",
        "meta_epoch": "2025-12-21T17:28:38.163936",
        "meta_mean_motion": 1.0027173,
        "meta_eccentricity": 0.0001724,
        "meta_inclination": 0.0303,
        "meta_ra_of_asc_node": 282.0172,
        "meta_arg_of_pericenter": 2.46,
        "meta_mean_anomaly": 248.2243,
        "meta_ephemeris_type": 0,
        "meta_classification_type": "U",
        "meta_norad_cat_id": 37834,
        "meta_element_set_no": 999,
        "meta_rev_at_epoch": 5203,
        "meta_bstar": 0,
        "meta_mean_motion_dot": 7.5e-07,
        "meta_mean_motion_ddot": 0,
        "tle_line1": "1 37834U 11056A   25355.72821949  .00000075  00000+0  00000+0 0  9990",
        "tle_line2": "2 37834   0.0303 282.0172 0001724   2.4600 248.2243  1.00271730 52037"
      },
      "geometry": {
        "type": "Point",
        "coordinates": [
          -28.104096568709743,
          0.008312653133464768
        ]
      }
    },
    {
      "type": "Feature",
      "properties": {
        "norad_id": 38098,
        "name": "INTELSAT 22 (IS-22)",
        "group": "intelsat",
        "lat": -0.030197326081992656,
        "lon": -136.04764219090066,
        "alt_km": 35781.761721470524,
        "timestamp": "2025-12-22T04:03:38.829641+00:00",
        "meta_object_name": "INTELSAT 22 (IS-22)",
        "meta_object_id": "2012-011A",
        "meta_epoch": "2025-12-21T20:20:09.838176",
        "meta_mean_motion": 1.00270706,
        "meta_eccentricity": 0.0001762,
        "meta_inclination": 0.0173,
        "meta_ra_of_asc_node": 309.7154,
        "meta_arg_of_pericenter": 326.0165,
        "meta_mean_anomaly": 192.0573,
        "meta_ephemeris_type": 0,
        "meta_classification_type": "U",
        "meta_norad_cat_id": 38098,
        "meta_element_set_no": 999,
        "meta_rev_at_epoch": 541,
        "meta_bstar": 0,
        "meta_mean_motion_dot": -3.6e-07,
        "meta_mean_motion_ddot": 0,
        "tle_line1": "1 38098U 12011A   25355.84733609 -.00000036  00000+0  00000+0 0  9991",
        "tle_line2": "2 38098   0.0173 309.7154 0001762 326.0165 192.0573  1.00270706  5419"
      },
      "geometry": {
        "type": "Point",
        "coordinates": [
          -136.04764219090066,
          -0.030197326081992656
        ]
      }
    },
    {
      "type": "Feature",
      "properties": {
        "norad_id": 38356,
        "name": "INTELSAT 19 (IS-19)",
        "group": "intelsat",
        "lat": -0.03058725244996096,
        "lon": -42.0955303750392,
        "alt_km": 35778.76390021224,
        "timestamp": "2025-12-22T04:03:38.829653+00:00",
        "meta_object_name": "INTELSAT 19 (IS-19)",
        "meta_object_id": "2012-030A",
        "meta_epoch": "2025-12-21T13:33:38.680128",
        "meta_mean_motion": 1.00271321,
        "meta_eccentricity": 0.0002756,
        "meta_inclination": 0.0111,
        "meta_ra_of_asc_node": 21.6786,
        "meta_arg_of_pericenter": 245.7502,
        "meta_mean_anomaly": 192.3636,
        "meta_ephemeris_type": 0,
        "meta_classification_type": "U",
        "meta_norad_cat_id": 38356,
        "meta_element_set_no": 999,
        "meta_rev_at_epoch": 4867,
        "meta_bstar": 0,
        "meta_mean_motion_dot": -3.4e-07,
        "meta_mean_motion_ddot": 0,
        "tle_line1": "1 38356U 12030A   25355.56503102 -.00000034  00000+0  00000+0 0  9999",
        "tle_line2": "2 38356   0.0111  21.6786 0002756 245.7502 192.3636  1.00271321 48677"
      },
      "geometry": {
        "type": "Point",
        "coordinates": [
          -42.0955303750392,
          -0.03058725244996096
        ]
      }
    },
    {
      "type": "Feature",
      "properties": {
        "norad_id": 38740,
        "name": "INTELSAT 20 (IS-20)",
        "group": "intelsat",
        "lat": -0.0034144319288652736,
        "lon": -139.60780403890527,
        "alt_km": 35774.872094814215,
        "timestamp": "2025-12-22T04:03:38.829665+00:00",
        "meta_object_name": "INTELSAT 20 (IS-20)",
        "meta_object_id": "2012-043A",
        "meta_epoch": "2025-12-21T20:20:00.525120",
        "meta_mean_motion": 1.00271371,
        "meta_eccentricity": 0.0003413,
        "meta_inclination": 0.0096,
        "meta_ra_of_asc_node": 63.998,
        "meta_arg_of_pericenter": 118.5979,
        "meta_mean_anomaly": 281.5536,
        "meta_ephemeris_type": 0,
        "meta_classification_type": "U",
        "meta_norad_cat_id": 38740,
        "meta_element_set_no": 999,
        "meta_rev_at_epoch": 4897,
        "meta_bstar": 0,
        "meta_mean_motion_dot": -2e-08,
        "meta_mean_motion_ddot": 0,
        "tle_line1": "1 38740U 12043A   25355.84722830 -.00000002  00000+0  00000+0 0  9997",
        "tle_line2": "2 38740   0.0096  63.9980 0003413 118.5979 281.5536  1.00271371 48975"
      },
      "geometry": {
        "type": "Point",
        "coordinates": [
          -139.60780403890527,
          -0.0034144319288652736
        ]
      }
    },
    {
      "type": "Feature",
      "properties": {
        "norad_id": 38749,
        "name": "INTELSAT 21 (IS-21)",
        "group": "intelsat",
        "lat": 0.023713609048163987,
        "lon": 93.88042616486766,
        "alt_km": 35792.41139815017,
        "timestamp": "2025-12-22T04:03:38.829677+00:00",
        "meta_object_name": "INTELSAT 21 (IS-21)",
        "meta_object_id": "2012-045A",
        "meta_epoch": "2025-12-21T18:03:20.766816",
        "meta_mean_motion": 1.00271778,
        "meta_eccentricity": 0.0001514,
        "meta_inclination": 0.0222,
        "meta_ra_of_asc_node": 293.437,
        "meta_arg_of_pericenter": 328.6242,
        "meta_mean_anomaly": 41.3444,
        "meta_ephemeris_type": 0,
        "meta_classification_type": "U",
        "meta_norad_cat_id": 38749,
        "meta_element_set_no": 999,
        "meta_rev_at_epoch": 4874,
        "meta_bstar": 0,
        "meta_mean_motion_dot": -2.62e-06,
        "meta_mean_motion_ddot": 0,
        "tle_line1": "1 38749U 12045A   25355.75232369 -.00000262  00000+0  00000+0 0  9999",
        "tle_line2": "2 38749   0.0222 293.4370 0001514 328.6242  41.3444  1.00271778 48741"
      },
      "geometry": {
        "type": "Point",
        "coordinates": [
          93.88042616486766,
          0.023713609048163987
        ]
      }
    }
  ]
}